NORAD_CAT_ID,OBJECT_NAME,OBJECT_TYPE,EPOCH,MEAN_MOTION,ECCENTRICITY,INCLINATION,RA_OF_ASC_NODE,ARG_OF_PERICENTER,MEAN_ANOMALY,BSTAR,MEAN_MOTION_DOT,MEAN_MOTION_DDOT,TLE_LINE0,TLE_LINE1,TLE_LINE2,SEMIMAJOR_AXIS,PERIOD,APOGEE,PERIGEE,DECAYED
55752.0,STARLINK-5613,PAYLOAD,2024-02-13 04:01:41,14.98324811,0.0002468,70.0023,349.2604,249.3697,110.7198,-8.2969e-05,-1.083e-05,0.0,0 STARLINK-5613,1 55752U 23028M   24044.16784438 -.00001083  00000-0 -82969-4 0  9996,2 55752  70.0023 349.2604 0002468 249.3697 110.7198 14.98324811 52876,6950.209,96.107,573.789,570.359,0.0
55752.0,STARLINK-5613,PAYLOAD,2024-02-13 13:38:29,14.98333657,0.0002867,70.0012,348.2491,269.9875,90.0955,-0.00013378,-1.689e-05,0.0,0 STARLINK-5613,1 55752U 23028M   24044.56840020 -.00001689  00000-0 -13378-3 0  9999,2 55752  70.0012 348.2491 0002867 269.9875  90.0955 14.98333657 52932,6950.182,96.107,574.039,570.054,0.0
55752.0,STARLINK-5613,PAYLOAD,2024-02-13 21:39:10,14.98328409,0.0002739,70.0011,347.4065,266.1911,93.8935,-1.87e-05,-3.16e-06,0.0,0 STARLINK-5613,1 55752U 23028M   24044.90220139 -.00000316  00000-0 -18700-4 0  9991,2 55752  70.0011 347.4065 0002739 266.1911  93.8935 14.98328409 52980,6950.198,96.107,573.966,570.159,0.0
55752.0,STARLINK-5613,PAYLOAD,2024-02-14 04:03:42,14.98329828,0.0002862,70.0013,346.7331,272.5063,87.5769,0.00011451,1.274e-05,0.0,0 STARLINK-5613,1 55752U 23028M   24045.16923686  .00001274  00000-0  11451-3 0  9994,2 55752  70.0013 346.7331 0002862 272.5063  87.5769 14.98329828 53023,6950.193,96.107,574.048,570.069,0.0
55752.0,STARLINK-5613,PAYLOAD,2024-02-14 13:40:30,14.98334235,0.0002315,70.0027,345.7242,278.4759,81.6137,-7.0165e-05,-9.3e-06,0.0,0 STARLINK-5613,1 55752U 23028M   24045.56979868 -.00000930  00000-0 -70165-4 0  9999,2 55752  70.0027 345.7242 0002315 278.4759  81.6137 14.98334235 53086,6950.18,96.107,573.654,570.436,0.0
55752.0,STARLINK-5613,PAYLOAD,2024-02-14 21:41:11,14.98320731,0.000192,70.0032,344.884,255.5148,104.5798,0.00010129,1.116e-05,0.0,0 STARLINK-5613,1 55752U 23028M   24045.90360304  .00001116  00000-0  10129-3 0  9994,2 55752  70.0032 344.8840 0001920 255.5148 104.5798 14.98320731 53135,6950.222,96.108,573.421,570.752,0.0
55752.0,STARLINK-5613,PAYLOAD,2024-02-15 04:05:43,14.9831951,0.0002468,70.002,344.2096,261.1198,98.9682,4.0896e-05,3.95e-06,0.0,0 STARLINK-5613,1 55752U 23028M   24046.17064611  .00000395  00000-0  40896-4 0  9999,2 55752  70.0020 344.2096 0002468 261.1198  98.9682 14.98319510 53170,6950.225,96.108,573.806,570.375,0.0
55752.0,STARLINK-5613,PAYLOAD,2024-02-15 05:41:51,14.98322608,0.0002551,70.0018,344.0417,261.2898,98.7972,2.5927e-05,2.16e-06,0.0,0 STARLINK-5613,1 55752U 23028M   24046.23740483  .00000216  00000-0  25927-4 0  9994,2 55752  70.0018 344.0417 0002551 261.2898  98.7972 14.98322608 53186,6950.216,96.107,573.854,570.308,0.0
55752.0,STARLINK-5613,PAYLOAD,2024-02-15 20:07:04,14.98327542,0.0002762,70.0016,342.5263,270.3233,89.7609,5.4656e-05,5.59e-06,0.0,0 STARLINK-5613,1 55752U 23028M   24046.83824258  .00000559  00000-0  54656-4 0  9994,2 55752  70.0016 342.5263 0002762 270.3233  89.7609 14.98327542 53273,6950.2,96.107,573.985,570.146,0.0
55752.0,STARLINK-5613,PAYLOAD,2024-02-16 05:43:52,14.9833554,0.0002631,70.0014,341.5165,268.2317,91.8541,3.2742e-05,2.98e-06,0.0,0 STARLINK-5613,1 55752U 23028M   24047.23879815  .00000298  00000-0  32742-4 0  9990,2 55752  70.0014 341.5165 0002631 268.2317  91.8541 14.98335540 53338,6950.176,96.107,573.869,570.212,0.0
55752.0,STARLINK-5613,PAYLOAD,2024-02-16 20:09:05,14.98323558,0.0002466,70.0021,340.003,267.375,92.7127,9.1877e-05,1.003e-05,0.0,0 STARLINK-5613,1 55752U 23028M   24047.83964389  .00001003  00000-0  91877-4 0  9996,2 55752  70.0021 340.0030 0002466 267.3750  92.7127 14.98323558 53424,6950.213,96.107,573.792,570.364,0.0
55752.0,STARLINK-5613,PAYLOAD,2024-02-16 21:45:13,14.98322482,0.0002523,70.0019,339.8347,265.7181,94.369,8.2203e-05,8.88e-06,0.0,0 STARLINK-5613,1 55752U 23028M   24047.90640481  .00000888  00000-0  82203-4 0  9991,2 55752  70.0019 339.8347 0002523 265.7181  94.3690 14.98322482 53431,6950.216,96.107,573.835,570.328,0.0
55752.0,STARLINK-5613,PAYLOAD,2024-02-17 12:10:25,14.98350667,0.0002644,70.0021,338.3191,269.4922,90.5934,-0.00032206,-3.936e-05,0.0,0 STARLINK-5613,1 55752U 23028M   24048.50723706 -.00003936  00000-0 -32206-3 0  9996,2 55752  70.0021 338.3191 0002644 269.4922  90.5934 14.98350667 53528,6950.129,96.106,573.832,570.156,0.0
55752.0,STARLINK-5613,PAYLOAD,2024-02-17 20:11:06,14.98330507,0.0002658,70.0015,337.4772,268.9612,91.1242,2.7226e-05,2.32e-06,0.0,0 STARLINK-5613,1 55752U 23028M   24048.84104226  .00000232  00000-0  27226-4 0  9994,2 55752  70.0015 337.4772 0002658 268.9612  91.1242 14.98330507 53576,6950.191,96.107,573.904,570.209,0.0
55752.0,STARLINK-5613,PAYLOAD,2024-02-17 21:47:14,14.98330175,0.0002686,70.0015,337.309,268.6192,91.4659,2.8117e-05,2.43e-06,0.0,0 STARLINK-5613,1 55752U 23028M   24048.90780228  .00000243  00000-0  28117-4 0  9995,2 55752  70.0015 337.3090 0002686 268.6192  91.4659 14.98330175 53586,6950.192,96.107,573.924,570.191,0.0
55752.0,STARLINK-5613,PAYLOAD,2024-02-18 04:11:45,14.98339941,0.0002807,70.0009,336.6364,267.8043,92.2795,0.0001054,1.165e-05,0.0,0 STARLINK-5613,1 55752U 23028M   24049.17483336  .00001165  00000-0  10540-3 0  9999,2 55752  70.0009 336.6364 0002807 267.8043  92.2795 14.98339941 53621,6950.162,96.106,573.978,570.076,0.0
55752.0,STARLINK-5613,PAYLOAD,2024-02-18 12:12:26,14.98332704,0.0002053,70.0028,335.7954,274.8702,85.2223,8.7401e-06,1.1e-07,0.0,0 STARLINK-5613,1 55752U 23028M   24049.50864176  .00000011  00000-0  87401-5 0  9992,2 55752  70.0028 335.7954 0002053 274.8702  85.2223 14.98332704 53673,6950.185,96.107,573.476,570.623,0.0
55752.0,STARLINK-5613,PAYLOAD,2024-02-18 20:13:07,14.98323075,0.0002935,70.0018,334.9538,269.0183,91.064,-9.4537e-06,-2.06e-06,0.0,0 STARLINK-5613,1 55752U 23028M   24049.84244547 -.00000206  00000-0 -94537-5 0  9999,2 55752  70.0018 334.9538 0002935 269.0183  91.0640 14.98323075 53724,6950.214,96.107,574.119,570.039,0.0
55752.0,STARLINK-5613,PAYLOAD,2024-02-18 21:49:15,14.98323613,0.0002948,70.0017,334.7855,269.8702,90.2119,-5.8888e-06,-1.63e-06,0.0,0 STARLINK-5613,1 55752U 23028M   24049.90920528 -.00000163  00000-0 -58888-5 0  9997,2 55752  70.0017 334.7855 0002948 269.8702  90.2119 14.98323613 53733,6950.213,96.107,574.127,570.029,0.0
55752.0,STARLINK-5613,PAYLOAD,2024-02-19 05:49:55,14.9832914,0.0002471,70.0019,333.9434,253.6888,106.3999,8.6986e-06,1.1e-07,0.0,0 STARLINK-5613,1 55752U 23028M   24050.24300134  .00000011  00000-0  86986-5 0  9991,2 55752  70.0019 333.9434 0002471 253.6888 106.3999 14.98329140 53787,6950.196,96.107,573.778,570.343,0.0
55752.0,STARLINK-5613,PAYLOAD,2024-02-19 21:51:15,14.98332681,0.0002679,70.0014,332.2605,256.4984,103.5877,2.4755e-05,2.02e-06,0.0,0 STARLINK-5613,1 55752U 23028M   24050.91059662  .00000202  00000-0  24755-4 0  9999,2 55752  70.0014 332.2605 0002679 256.4984 103.5877 14.98332681 53881,6950.185,96.107,573.912,570.188,0.0
55752.0,STARLINK-5613,PAYLOAD,2024-02-20 04:15:47,14.98333789,0.0002644,70.0018,331.5874,255.3987,104.6879,4.1067e-05,3.97e-06,0.0,0 STARLINK-5613,1 55752U 23028M   24051.17763507  .00000397  00000-0  41067-4 0  9998,2 55752  70.0018 331.5874 0002644 255.3987 104.6879 14.98333789 53927,6950.181,96.107,573.884,570.209,0.0
55752.0,STARLINK-5613,PAYLOAD,2024-02-20 12:16:28,14.98332512,0.0002403,70.0024,330.7446,270.4717,89.6166,-6.2667e-06,-1.68e-06,0.0,0 STARLINK-5613,1 55752U 23028M   24051.51143664 -.00000168  00000-0 -62667-5 0  9990,2 55752  70.0024 330.7446 0002403 270.4717  89.6166 14.98332512 53971,6950.185,96.107,573.72,570.38,0.0
55752.0,STARLINK-5613,PAYLOAD,2024-02-20 23:29:24,14.98323055,0.0002826,70.0012,329.5649,270.5806,89.5029,4.7787e-05,4.77e-06,0.0,0 STARLINK-5613,1 55752U 23028M   24051.97876109  .00000477  00000-0  47787-4 0  9993,2 55752  70.0012 329.5649 0002826 270.5806  89.5029 14.98323055 54046,6950.214,96.107,574.043,570.115,0.0
55752.0,STARLINK-5613,PAYLOAD,2024-02-21 04:17:49,14.98324452,0.0002673,70.0013,329.0602,271.4957,88.5896,5.166e-05,5.23e-06,0.0,0 STARLINK-5613,1 55752U 23028M   24052.17904095  .00000523  00000-0  51660-4 0  9999,2 55752  70.0013 329.0602 0002673 271.4957  88.5896 14.98324452 54074,6950.21,96.107,573.933,570.217,0.0
55752.0,STARLINK-5613,PAYLOAD,2024-02-21 12:18:29,14.98328371,0.0002607,70.0015,328.2193,268.6607,91.4253,2.8646e-06,-5.9e-07,0.0,0 STARLINK-5613,1 55752U 23028M   24052.51283986 -.00000059  00000-0  28646-5 0  9990,2 55752  70.0015 328.2193 0002607 268.6607  91.4253 14.98328371 54129,6950.198,96.107,573.875,570.251,0.0
55752.0,STARLINK-5613,PAYLOAD,2024-02-21 21:55:17,14.98330031,0.0002761,70.0013,327.2095,272.8516,87.2327,-4.1863e-05,-5.92e-06,0.0,0 STARLINK-5613,1 55752U 23028M   24052.91339993 -.00000592  00000-0 -41863-4 0  9992,2 55752  70.0013 327.2095 0002761 272.8516  87.2327 14.98330031 54181,6950.193,96.107,573.977,570.139,0.0
55752.0,STARLINK-5613,PAYLOAD,2024-02-22 04:19:49,14.98332321,0.0002728,70.0014,326.5364,273.8406,86.2441,-9.8185e-06,-2.1e-06,0.0,0 STARLINK-5613,1 55752U 23028M   24053.18043760 -.00000210  00000-0 -98185-5 0  9993,2 55752  70.0014 326.5364 0002728 273.8406  86.2441 14.98332321 54220,6950.186,96.107,573.947,570.155,0.0
55752.0,STARLINK-5613,PAYLOAD,2024-02-22 21:57:18,14.98328159,0.000274,70.0012,324.6851,274.5063,85.5783,3.3835e-05,3.11e-06,0.0,0 STARLINK-5613,1 55752U 23028M   24053.91479881  .00000311  00000-0  33835-4 0  9991,2 55752  70.0012 324.6851 0002740 274.5063  85.5783 14.98328159 54336,6950.199,96.107,573.968,570.159,0.0
55752.0,STARLINK-5613,PAYLOAD,2024-02-23 10:46:22,14.98330846,0.0002666,70.0012,323.3379,272.4047,87.6806,2.8319e-05,2.45e-06,0.0,0 STARLINK-5613,1 55752U 23028M   24054.44887685  .00000245  00000-0  28319-4 0  9992,2 55752  70.0012 323.3379 0002666 272.4047  87.6806 14.98330846 54417,6950.19,96.107,573.908,570.202,0.0
